AQUA                    
1 27424U 02022A   26093.94169943  .00001773  00000+0  36316-3 0  9999
2 27424  98.4218  61.7750 0001372 115.7141 320.8374 14.62040083272424
CZ-4B R/B               
1 27432U 02024C   26093.76777785  .00000086  00000+0  67163-4 0  9990
2 27432  98.8783 147.0419 0049272 312.6057 155.3358 14.14552410232786
MIDORI II (ADEOS-II)    
1 27597U 02056A   26093.86523729  .00000531  00000+0  22634-3 0  9993
2 27597  98.7814  52.5239 0000422  20.5091 339.6107 14.29305855213894
H-2A R/B                
1 27601U 02056E   26093.90086075  .00000550  00000+0  20654-3 0  9993
2 27601  98.3248  53.3135 0071419  86.5117 337.7023 14.33779831217722
CZ-4B R/B               
1 28059U 03049C   26093.96500417  .00000621  00000+0  15362-3 0  9990
2 28059  98.6897  89.8657 0048657 153.3548 207.0164 14.55044733190270
CZ-2C R/B               
1 28222U 04012C   26093.72088050  .00081064  00000+0  73317-3 0  9995
2 28222  97.7165 161.4365 0013605 211.2967 148.7485 15.67722362208190
SL-16 R/B               
1 28353U 04021B   26093.70143564  .00000398  00000+0  23192-3 0  9997
2 28353  71.0012 180.0052 0005359 338.4894  21.6002 14.14599312126370
CZ-4B R/B               
1 28415U 04035C   26093.64262337  .00014127  00000+0  48915-3 0  9999
2 28415  97.3450 127.5878 0030266 238.1218 121.7077 15.29524075183726
CZ-2C R/B               
1 28480U 04046B   26093.72809258  .00000296  00000+0  12423-3 0  9998
2 28480  98.1976   7.1519 0140631  80.9095 280.7969 14.27002341112079
ARIANE 5 R/B            
1 28499U 04049H   26093.89543246  .00001507  00000+0  17216-3 0  9992
2 28499  98.2663 263.3028 0082815 269.3889  89.7835 14.85317517149535
CZ-2D R/B               
1 28738U 05024B   26093.96133700  .00074033  00000+0  82405-3 0  9996
2 28738  97.3568 110.0757 0001827 282.4318  77.6736 15.62621162143720
ALOS (DAICHI)           
1 28931U 06002A   26093.89492224  .00002578  00000+0  43922-3 0  9995
2 28931  98.1261  49.7320 0001107 115.1518 244.9803 14.69893925 77187
